{"type": "FeatureCollection", "features": [{"type": "Feature", "properties": {"norad_id": 25590, "name": "COSMOS 2361", "group": "musson", "lat": 16.622399181631902, "lon": 158.59718767971546, "alt_km": 988.2168988511357, "timestamp": "2025-12-17T07:00:47.173403+00:00", "meta": {"OBJECT_NAME": "COSMOS 2361", "OBJECT_ID": "1998-076A", "EPOCH": "2025-12-16T23:18:46.375776", "MEAN_MOTION": 13.73218058, "ECCENTRICITY": 0.0030093, "INCLINATION": 82.934, "RA_OF_ASC_NODE": 340.9564, "ARG_OF_PERICENTER": 253.3354, "MEAN_ANOMALY": 124.9282, "EPHEMERIS_TYPE": 0, "CLASSIFICATION_TYPE": "U", "NORAD_CAT_ID": 25590, "ELEMENT_SET_NO": 999, "REV_AT_EPOCH": 35169, "BSTAR": 7.0077243e-05, "MEAN_MOTION_DOT": 8e-07, "MEAN_MOTION_DDOT": 0}, "tle": {"line1": "1 25590U 98076A   25350.97137009  .00000080  00000+0  70077-4 0  9994", "line2": "2 25590  82.9340 340.9564 0030093 253.3354 124.9282 13.73218058351690"}}, "geometry": {"type": "Point", "coordinates": [158.59718767971546, 16.622399181631902]}}, {"type": "Feature", "properties": {"norad_id": 26818, "name": "COSMOS 2378", "group": "musson", "lat": -70.33683338946932, "lon": -163.31991911499654, "alt_km": 979.7728088659351, "timestamp": "2025-12-17T07:00:47.173427+00:00", "meta": {"OBJECT_NAME": "COSMOS 2378", "OBJECT_ID": "2001-023A", "EPOCH": "2025-12-17T00:38:10.726656", "MEAN_MOTION": 13.7414238, "ECCENTRICITY": 0.00326587, "INCLINATION": 82.9272, "RA_OF_ASC_NODE": 356.5461, "ARG_OF_PERICENTER": 192.799, "MEAN_ANOMALY": 184.7935, "EPHEMERIS_TYPE": 0, "CLASSIFICATION_TYPE": "U", "NORAD_CAT_ID": 26818, "ELEMENT_SET_NO": 999, "REV_AT_EPOCH": 22982, "BSTAR": 5.2605687e-05, "MEAN_MOTION_DOT": 6.5e-07, "MEAN_MOTION_DDOT": 0}, "tle": {"line1": "1 26818U 01023A   25351.02651304  .00000065  00000+0  52606-4 0  9991", "line2": "2 26818  82.9272 356.5461 0032658 192.7990 184.7935 13.74142380229821"}}, "geometry": {"type": "Point", "coordinates": [-163.31991911499654, -70.33683338946932]}}, {"type": "Feature", "properties": {"norad_id": 27436, "name": "COSMOS 2389", "group": "musson", "lat": 63.81813805089243, "lon": 109.03850663839478, "alt_km": 961.0283888921995, "timestamp": "2025-12-17T07:00:47.173442+00:00", "meta": {"OBJECT_NAME": "COSMOS 2389", "OBJECT_ID": "2002-026A", "EPOCH": "2025-12-16T23:48:40.572864", "MEAN_MOTION": 13.75155153, "ECCENTRICITY": 0.0047508, "INCLINATION": 82.9506, "RA_OF_ASC_NODE": 303.8366, "ARG_OF_PERICENTER": 49.1945, "MEAN_ANOMALY": 20.831, "EPHEMERIS_TYPE": 0, "CLASSIFICATION_TYPE": "U", "NORAD_CAT_ID": 27436, "ELEMENT_SET_NO": 999, "REV_AT_EPOCH": 18207, "BSTAR": 4.2215983e-05, "MEAN_MOTION_DOT": 5.6e-07, "MEAN_MOTION_DDOT": 0}, "tle": {"line1": "1 27436U 02026A   25350.99213626  .00000056  00000+0  42216-4 0  9994", "line2": "2 27436  82.9506 303.8366 0047508  49.1945  20.8310 13.75155153182077"}}, "geometry": {"type": "Point", "coordinates": [109.03850663839478, 63.81813805089243]}}, {"type": "Feature", "properties": {"norad_id": 27818, "name": "COSMOS 2398", "group": "musson", "lat": 21.44303535916259, "lon": -87.86983439862469, "alt_km": 985.6341525162816, "timestamp": "2025-12-17T07:00:47.173454+00:00", "meta": {"OBJECT_NAME": "COSMOS 2398", "OBJECT_ID": "2003-023A", "EPOCH": "2025-12-16T20:42:23.487840", "MEAN_MOTION": 13.72386143, "ECCENTRICITY": 0.00326953, "INCLINATION": 82.9484, "RA_OF_ASC_NODE": 269.6601, "ARG_OF_PERICENTER": 100.7657, "MEAN_ANOMALY": 320.8206, "EPHEMERIS_TYPE": 0, "CLASSIFICATION_TYPE": "U", "NORAD_CAT_ID": 27818, "ELEMENT_SET_NO": 999, "REV_AT_EPOCH": 12873, "BSTAR": 3.8763909e-05, "MEAN_MOTION_DOT": 5.1e-07, "MEAN_MOTION_DDOT": 0}, "tle": {"line1": "1 27818U 03023A   25350.86277185  .00000051  00000+0  38764-4 0  9990", "line2": "2 27818  82.9484 269.6601 0032695 100.7657 320.8206 13.72386143128734"}}, "geometry": {"type": "Point", "coordinates": [-87.86983439862469, 21.44303535916259]}}, {"type": "Feature", "properties": {"norad_id": 28380, "name": "COSMOS 2407", "group": "musson", "lat": -76.38759827100755, "lon": 178.83954847874693, "alt_km": 999.3554557200259, "timestamp": "2025-12-17T07:00:47.173485+00:00", "meta": {"OBJECT_NAME": "COSMOS 2407", "OBJECT_ID": "2004-028A", "EPOCH": "2025-12-16T23:14:41.029152", "MEAN_MOTION": 13.76314177, "ECCENTRICITY": 0.00401623, "INCLINATION": 82.9601, "RA_OF_ASC_NODE": 209.7618, "ARG_OF_PERICENTER": 43.348, "MEAN_ANOMALY": 75.8985, "EPHEMERIS_TYPE": 0, "CLASSIFICATION_TYPE": "U", "NORAD_CAT_ID": 28380, "ELEMENT_SET_NO": 999, "REV_AT_EPOCH": 7481, "BSTAR": 7.1978188e-05, "MEAN_MOTION_DOT": 8.6e-07, "MEAN_MOTION_DDOT": 0}, "tle": {"line1": "1 28380U 04028A   25350.96853043  .00000086  00000+0  71978-4 0  9997", "line2": "2 28380  82.9601 209.7618 0040162  43.3480  75.8985 13.76314177 74819"}}, "geometry": {"type": "Point", "coordinates": [178.83954847874693, -76.38759827100755]}}, {"type": "Feature", "properties": {"norad_id": 28521, "name": "COSMOS 2414", "group": "musson", "lat": 14.576904210792168, "lon": -176.93821602244148, "alt_km": 948.0746941077714, "timestamp": "2025-12-17T07:00:47.173498+00:00", "meta": {"OBJECT_NAME": "COSMOS 2414", "OBJECT_ID": "2005-002A", "EPOCH": "2025-12-17T00:01:16.929696", "MEAN_MOTION": 13.87903571, "ECCENTRICITY": 0.00411218, "INCLINATION": 82.9489, "RA_OF_ASC_NODE": 181.4377, "ARG_OF_PERICENTER": 127.7959, "MEAN_ANOMALY": 232.694, "EPHEMERIS_TYPE": 0, "CLASSIFICATION_TYPE": "U", "NORAD_CAT_ID": 28521, "ELEMENT_SET_NO": 999, "REV_AT_EPOCH": 5854, "BSTAR": 6.7947314e-05, "MEAN_MOTION_DOT": 9.7e-07, "MEAN_MOTION_DDOT": 0}, "tle": {"line1": "1 28521U 05002A   25351.00089039  .00000097  00000+0  67947-4 0  9992", "line2": "2 28521  82.9489 181.4377 0041121 127.7959 232.6940 13.87903571 58542"}}, "geometry": {"type": "Point", "coordinates": [-176.93821602244148, 14.576904210792168]}}, {"type": "Feature", "properties": {"norad_id": 32052, "name": "COSMOS 2429", "group": "musson", "lat": -59.27848725003861, "lon": -32.01321849169862, "alt_km": 985.8219180649594, "timestamp": "2025-12-17T07:00:47.173509+00:00", "meta": {"OBJECT_NAME": "COSMOS 2429", "OBJECT_ID": "2007-038A", "EPOCH": "2025-12-16T22:34:19.294176", "MEAN_MOTION": 13.75149861, "ECCENTRICITY": 0.00390161, "INCLINATION": 82.9804, "RA_OF_ASC_NODE": 340.2117, "ARG_OF_PERICENTER": 26.3683, "MEAN_ANOMALY": 333.9448, "EPHEMERIS_TYPE": 0, "CLASSIFICATION_TYPE": "U", "NORAD_CAT_ID": 32052, "ELEMENT_SET_NO": 999, "REV_AT_EPOCH": 91660, "BSTAR": 6.3036203e-05, "MEAN_MOTION_DOT": 7.6e-07, "MEAN_MOTION_DDOT": 0}, "tle": {"line1": "1 32052U 07038A   25350.94050109  .00000076  00000+0  63036-4 0  9997", "line2": "2 32052  82.9804 340.2117 0039016  26.3683 333.9448 13.75149861916601"}}, "geometry": {"type": "Point", "coordinates": [-32.01321849169862, -59.27848725003861]}}, {"type": "Feature", "properties": {"norad_id": 35635, "name": "COSMOS 2454", "group": "musson", "lat": 78.78198858532078, "lon": -53.375837845545036, "alt_km": 909.7046746416336, "timestamp": "2025-12-17T07:00:47.173520+00:00", "meta": {"OBJECT_NAME": "COSMOS 2454", "OBJECT_ID": "2009-039A", "EPOCH": "2025-12-16T22:41:12.405408", "MEAN_MOTION": 13.8992914, "ECCENTRICITY": 0.00203621, "INCLINATION": 82.9553, "RA_OF_ASC_NODE": 165.4568, "ARG_OF_PERICENTER": 62.5062, "MEAN_ANOMALY": 101.1284, "EPHEMERIS_TYPE": 0, "CLASSIFICATION_TYPE": "U", "NORAD_CAT_ID": 35635, "ELEMENT_SET_NO": 999, "REV_AT_EPOCH": 83208, "BSTAR": 5.4603126e-05, "MEAN_MOTION_DOT": 8.3e-07, "MEAN_MOTION_DDOT": 0}, "tle": {"line1": "1 35635U 09039A   25350.94528247  .00000083  00000+0  54603-4 0  9991", "line2": "2 35635  82.9553 165.4568 0020362  62.5062 101.1284 13.89929140832089"}}, "geometry": {"type": "Point", "coordinates": [-53.375837845545036, 78.78198858532078]}}, {"type": "Feature", "properties": {"norad_id": 36519, "name": "COSMOS 2463", "group": "musson", "lat": -19.218072026485743, "lon": -154.16428412295542, "alt_km": 992.2857967597838, "timestamp": "2025-12-17T07:00:47.173532+00:00", "meta": {"OBJECT_NAME": "COSMOS 2463", "OBJECT_ID": "2010-017A", "EPOCH": "2025-12-16T20:22:52.735872", "MEAN_MOTION": 13.71649506, "ECCENTRICITY": 0.00347325, "INCLINATION": 82.961, "RA_OF_ASC_NODE": 23.6927, "ARG_OF_PERICENTER": 276.1969, "MEAN_ANOMALY": 257.2123, "EPHEMERIS_TYPE": 0, "CLASSIFICATION_TYPE": "U", "NORAD_CAT_ID": 36519, "ELEMENT_SET_NO": 999, "REV_AT_EPOCH": 78293, "BSTAR": 5.9804549e-05, "MEAN_MOTION_DOT": 6.9e-07, "MEAN_MOTION_DDOT": 0}, "tle": {"line1": "1 36519U 10017A   25350.84922148  .00000069  00000+0  59805-4 0  9991", "line2": "2 36519  82.9610  23.6927 0034732 276.1969 257.2123 13.71649506782933"}}, "geometry": {"type": "Point", "coordinates": [-154.16428412295542, -19.218072026485743]}}]}